IRIDIUM 166             
1 43570U 18061B   25067.52039730  .00000080  00000+0  21546-4 0  9993
2 43570  86.3919 251.2906 0001897  80.9728 279.1682 14.34218062346651
IRIDIUM 158             
1 43571U 18061C   25067.55845346  .00000151  00000+0  46761-4 0  9990
2 43571  86.3918 251.2844 0002232  88.7508 271.3944 14.34218495346631
IRIDIUM 165             
1 43572U 18061D   25067.51405472  .00000079  00000+0  21049-4 0  9990
2 43572  86.3920 251.3405 0001840  91.7370 268.4036 14.34217997346640
IRIDIUM 155             
1 43573U 18061E   25067.47599835  .00000178  00000+0  56442-4 0  9998
2 43573  86.3917 251.2486 0002193  83.1425 277.0020 14.34218201346618
IRIDIUM 154             
1 43574U 18061F   25067.59650894 -.00000010  00000+0 -10492-4 0  9997
2 43574  86.3923 251.3089 0001890  91.9476 268.1937 14.34217657346670
IRIDIUM 163             
1 43575U 18061G   25067.50771280  .00000100  00000+0  28555-4 0  9999
2 43575  86.3917 251.2758 0002181  92.8752 267.2693 14.34218098346632
IRIDIUM 156             
1 43576U 18061H   25067.06373059  .00000130  00000+0  39420-4 0  9999
2 43576  86.3918 251.4685 0002145  80.0154 280.1284 14.34218427346568
IRIDIUM 164             
1 43577U 18061J   25067.53308269  .00000054  00000+0  12322-4 0  9990
2 43577  86.3919 251.3049 0001814  92.6321 267.5082 14.34217753346678
